ATLAS CENTAUR 2         
1 00694U 63047A   26064.80027147  .00001912  00000+0  22416-3 0  9996
2 00694  30.3516 217.3796 0547771  46.0087 318.4365 14.12053945131076
THOR AGENA D R/B        
1 00733U 64002A   26064.61484701  .00000321  00000+0  13186-3 0  9991
2 00733  99.1228  77.7302 0031910 270.3392  89.4134 14.34017472237714
SL-3 R/B                
1 00877U 64053B   26064.51741639  .00000507  00000+0  12211-3 0  9995
2 00877  65.0788 343.4686 0079584 293.5469  65.7285 14.61364085266187
SL-8 R/B                
1 02802U 67045B   26064.21529399  .00000631  00000+0  18202-3 0  9997
2 02802  74.0138 356.4442 0064010   3.7658 356.3968 14.45617853 88375
SL-8 R/B                
1 03230U 68040B   26064.84970213  .00004920  00000+0  36400-3 0  9998
2 03230  74.0327 321.5405 0024028 146.6954 213.5752 15.03226988 89437
OAO 2                   
1 03597U 68110A   26064.71281271  .00000381  00000+0  10766-3 0  9991
2 03597  34.9933 287.4281 0005424 173.7452 186.3307 14.47305208 18521
ISIS 1                  
1 03669U 69009A   26064.73713468  .00000222  00000+0  14148-3 0  9991
2 03669  88.4546 155.7396 1707813  97.1352 282.6082 11.30412798348088
SERT 2                  
1 04327U 70009A   26064.72275435  .00000015  00000+0  77313-4 0  9995
2 04327  99.2754   8.0334 0004888 165.5471 258.6043 13.58729431779351
SL-3 R/B                
1 05118U 71028B   26064.80998015  .00048072  00000+0  57319-3 0  9999
2 05118  81.2344  56.8193 0013782 302.3773  57.6146 15.60747903988069
ASTEX 1                 
1 05560U 71089A   26064.75284671  .00000679  00000+0  17248-3 0  9995
2 05560  92.7127 150.4867 0017862  97.4917 262.8319 14.50765145861732
SL-8 R/B                
1 05730U 71119B   26064.69131247  .00014945  00000+0  77655-3 0  9990
2 05730  73.8883 183.1910 0549555 150.6609 212.6635 14.37733005654910
OAO 3 (COPERNICUS)      
1 06153U 72065A   26064.83865531  .00000540  00000+0  11519-3 0  9990
2 06153  35.0064 319.2569 0006103 134.1241 290.4431 14.59994522845635
ATLAS CENTAUR R/B       
1 06155U 72065B   26064.84215344  .00001870  00000+0  25765-3 0  9999
2 06155  35.0026 328.3015 0033983 336.5094  23.4054 14.77675433840695
SL-8 R/B                
1 08459U 75112B   26064.32952162  .00000334  00000+0  11859-3 0  9996
2 08459  74.0619  26.9320 0014529 122.0340 238.2228 14.38200686631241
SL-3 R/B                
1 10114U 77057B   26064.76929421  .00016289  00000+0  34274-3 0  9999
2 10114  97.5765 236.5180 0006267 301.5835  58.4801 15.45361859667720
SEASAT 1                
1 10967U 78064A   26064.69164004  .00000311  00000+0  12535-3 0  9999
2 10967 108.0118 117.1103 0002223 287.0341  73.0561 14.46156505505933
SL-14 R/B               
1 11267U 79011B   26064.55628380  .00000792  00000+0  75615-4 0  9995
2 11267  82.5213 100.4941 0017573  73.2348 287.0798 14.91902860528162
